0 BREEZE-M DEB
1 32027U 06006E   13282.45719134  .00006952  00000-0  20978-1 0  7162
2 32027 051.2762 168.8936 4748267 157.6140 082.7934 05.67173699132947
0 BREEZE-M DEB
1 32027U 06006E   13282.93344856  .00007345  00000-0  22161-1 0  7174
2 32027 051.2768 168.5138 4748214 157.9062 335.1888 05.67187425132970
0 BREEZE-M DEB
1 32027U 06006E   13283.33957899  .00007162  00000-0  21595-1 0  7184
2 32027 051.2778 168.1896 4748299 158.1518 084.4338 05.67192271132991
0 BREEZE-M DEB
1 32027U 06006E   13283.99373678  .00008359  00000-0  25200-1 0  7190
2 32027 051.2783 167.6678 4748213 158.5493 340.1309 05.67199971133031
0 BREEZE-M DEB
1 32027U 06006E   13284.87115309  .00006934  00000-0  20919-1 0  7215
2 32027 051.2796 166.9673 4748178 159.0813 331.7162 05.67212740133082
0 BREEZE-M DEB
1 32027U 06006E   13285.63612596  .00007892  00000-0  23781-1 0  7225
2 32027 051.2807 166.3568 4748185 159.5443 093.7715 05.67217746133129
0 BREEZE-M DEB
1 32027U 06006E   13286.99112299  .00009104  00000-0  27340-1 0  7234
2 32027 051.2834 165.2750 4748261 160.3691 340.6654 05.67241469133204
0 BREEZE-M DEB
1 32027U 06006E   13288.05619218  .00012129  00000-0  36356-1 0  7245
2 32027 051.2847 164.4253 4748015 161.0350 355.5536 05.67287131133260
0 BREEZE-M DEB
1 32027U 06006E   13289.11664611  .00010469  00000-0  31379-1 0  7256
2 32027 051.2859 163.5790 4747823 161.6670 001.2172 05.67310663133321
0 BREEZE-M DEB
1 32027U 06006E   13290.02711124  .00010155  00000-0  30418-1 0  7266
2 32027 051.2873 162.8523 4747778 162.2171 060.6409 05.67321466133375
0 BREEZE-M DEB
1 32027U 06006E   13290.63490851  .00011121  00000-0  33597-1 0  7281
2 32027 051.2795 162.3670 4746659 162.5821 222.0222 05.67318231133416
0 BREEZE-M DEB
1 32027U 06006E   13291.05387063  .00010110  00000-0  30244-1 0  7270
2 32027 051.2893 162.0327 4747772 162.8392 357.6487 05.67342440133433
0 BREEZE-M DEB
1 32027U 06006E   13292.11337416  .00010990  00000-0  32857-1 0  7284
2 32027 051.2910 161.1871 4747751 163.4816 001.6247 05.67357987133490
0 BREEZE-M DEB
1 32027U 06006E   13293.86114198  .00012812  00000-0  38318-1 0  7291
2 32027 051.2933 159.7921 4747548 164.5387 331.5230 05.67392982133595
0 BREEZE-M DEB
1 32027U 06006E   13294.04874214  .00010402  00000-0  31077-1 0  7304
2 32027 051.2941 159.6423 4747553 164.6730 354.6290 05.67417917133609
0 BREEZE-M DEB
1 32027U 06006E   13294.97200770  .00011622  00000-0  34727-1 0  7317
2 32027 051.2955 158.9053 4747448 165.2383 080.5428 05.67436072133655
0 BREEZE-M DEB
1 32027U 06006E   13295.50635944  .00013082  00000-0  39078-1 0  7329
2 32027 051.2965 158.4786 4747433 165.5539 092.1033 05.67441730133685
0 BREEZE-M DEB
1 32027U 06006E   13295.98592910  .00010642  00000-0  31769-1 0  7335
2 32027 051.2975 158.0956 4747374 165.8607 351.6680 05.67473012133717
